NORAD_CAT_ID,OBJECT_NAME,OBJECT_TYPE,EPOCH,MEAN_MOTION,ECCENTRICITY,INCLINATION,RA_OF_ASC_NODE,ARG_OF_PERICENTER,MEAN_ANOMALY,BSTAR,MEAN_MOTION_DOT,MEAN_MOTION_DDOT,TLE_LINE0,TLE_LINE1,TLE_LINE2,SEMIMAJOR_AXIS,PERIOD,APOGEE,PERIGEE,DECAYED
53266.0,STARLINK-4058,PAYLOAD,2023-07-15 18:17:05,15.08831029,0.0001206,53.2163,219.3164,85.4666,274.6464,4.6191e-05,4.47e-06,0.0,0 STARLINK-4058,1 53266U 22086AA  23196.76186483  .00000447  00000-0  46191-4 0  9994,2 53266  53.2163 219.3164 0001206  85.4666 274.6464 15.08831029 54766,6917.908,95.438,540.607,538.939,0.0
53266.0,STARLINK-4058,PAYLOAD,2023-07-16 18:07:51,15.08835603,0.0001003,53.2151,214.8567,86.4299,273.6807,6.9188e-06,-1.78e-06,0.0,0 STARLINK-4058,1 53266U 22086AA  23197.75546144 -.00000178  00000-0  69188-5 0  9992,2 53266  53.2151 214.8567 0001003  86.4299 273.6807 15.08835603 54917,6917.894,95.438,540.453,539.065,0.0
53266.0,STARLINK-4058,PAYLOAD,2023-07-17 08:26:20,15.08841149,9.92e-05,53.2147,212.1803,89.8652,270.2454,9.0712e-05,1.156e-05,0.0,0 STARLINK-4058,1 53266U 22086AA  23198.35162064  .00001156  00000-0  90712-4 0  9996,2 53266  53.2147 212.1803 0000992  89.8652 270.2454 15.08841149 55006,6917.877,95.437,540.428,539.056,0.0
53266.0,STARLINK-4058,PAYLOAD,2023-07-18 09:52:30,15.08846405,9.94e-05,53.2143,207.4226,89.0929,271.0177,0.00026378,3.913e-05,0.0,0 STARLINK-4058,1 53266U 22086AA  23199.41146008  .00003913  00000-0  26378-3 0  9993,2 53266  53.2143 207.4226 0000994  89.0929 271.0177 15.08846405 55167,6917.861,95.437,540.413,539.038,0.0
53266.0,STARLINK-4058,PAYLOAD,2023-07-19 00:10:58,15.08835967,0.0001057,53.2147,204.7465,88.3327,271.7786,7.1495e-06,-1.74e-06,0.0,0 STARLINK-4058,1 53266U 22086AA  23200.00762457 -.00000174  00000-0  71495-5 0  9992,2 53266  53.2147 204.7465 0001057  88.3327 271.7786 15.08835967 55255,6917.893,95.438,540.489,539.026,0.0
53266.0,STARLINK-4058,PAYLOAD,2023-07-20 23:52:32,15.08843369,9.94e-05,53.216,195.8248,85.6676,274.443,0.00014318,1.992e-05,0.0,0 STARLINK-4058,1 53266U 22086AA  23201.99482125  .00001992  00000-0  14318-3 0  9999,2 53266  53.2160 195.8248 0000994  85.6676 274.4430 15.08843369 55559,6917.87,95.437,540.423,539.047,0.0
53266.0,STARLINK-4058,PAYLOAD,2023-07-24 07:21:50,15.08830486,0.0001126,53.2168,180.9571,93.3254,266.7867,1.7501e-05,-9e-08,0.0,0 STARLINK-4058,1 53266U 22086AA  23205.30683453 -.00000009  00000-0  17501-4 0  9992,2 53266  53.2168 180.9571 0001126  93.3254 266.7867 15.08830486 56237,6917.909,95.438,540.553,538.996,0.0
53266.0,STARLINK-4058,PAYLOAD,2023-07-25 08:48:00,15.08844416,0.0001009,53.2173,176.1989,100.983,259.1276,8.8598e-06,-1.47e-06,0.0,0 STARLINK-4058,1 53266U 22086AA  23206.36666893 -.00000147  00000-0  88598-5 0  9996,2 53266  53.2173 176.1989 0001009 100.9830 259.1276 15.08844416 56393,6917.867,95.437,540.43,539.034,0.0
53266.0,STARLINK-4058,PAYLOAD,2023-07-26 07:03:23,15.0884439,0.0001135,53.2169,172.036,88.892,271.2202,7.1506e-05,8.51e-06,0.0,0 STARLINK-4058,1 53266U 22086AA  23207.29402711  .00000851  00000-0  71506-4 0  9997,2 53266  53.2169 172.0360 0001135  88.8920 271.2202 15.08844390 56531,6917.867,95.437,540.517,538.947,0.0
53266.0,STARLINK-4058,PAYLOAD,2023-07-27 06:54:10,15.08849852,0.0001297,53.2163,167.5755,87.6077,272.5063,0.00013215,1.816e-05,0.0,0 STARLINK-4058,1 53266U 22086AA  23208.28762258  .00001816  00000-0  13215-3 0  9996,2 53266  53.2163 167.5755 0001297  87.6077 272.5063 15.08849852 56505,6917.85,95.437,540.613,538.818,0.0
53266.0,STARLINK-4058,PAYLOAD,2023-07-27 14:51:07,15.08833143,0.0001703,53.216,166.0883,87.3479,272.7708,-1.3311e-05,-5e-06,0.0,0 STARLINK-4058,1 53266U 22086AA  23208.61883706 -.00000500  00000-0 -13311-4 0  9994,2 53266  53.2160 166.0883 0001703  87.3479 272.7708 15.08833143 56552,6917.901,95.438,540.944,538.588,0.0
53266.0,STARLINK-4058,PAYLOAD,2023-07-28 06:44:59,15.08832397,0.0001324,53.2166,163.1143,94.6998,265.4145,-7.3537e-05,-1.458e-05,0.0,0 STARLINK-4058,1 53266U 22086AA  23209.28124136 -.00001458  00000-0 -73537-4 0  9992,2 53266  53.2166 163.1143 0001324  94.6998 265.4145 15.08832397 56836,6917.904,95.438,540.685,538.853,0.0
53266.0,STARLINK-4058,PAYLOAD,2023-07-29 03:24:58,15.08862387,0.0001284,53.2172,159.2501,91.5277,268.5863,-9.8894e-05,-1.862e-05,0.0,0 STARLINK-4058,1 53266U 22086AA  23210.14234444 -.00001862  00000-0 -98894-4 0  9995,2 53266  53.2172 159.2501 0001284  91.5277 268.5863 15.08862387 56785,6917.812,95.436,540.565,538.789,0.0
53266.0,STARLINK-4058,PAYLOAD,2023-07-30 01:40:23,15.08843306,0.0001284,53.2157,155.0864,91.5691,268.5448,0.00024541,3.62e-05,0.0,0 STARLINK-4058,1 53266U 22086AA  23211.06971630  .00003620  00000-0  24541-3 0  9991,2 53266  53.2157 155.0864 0001284  91.5691 268.5448 15.08843306 56929,6917.87,95.437,540.624,538.847,0.0
53266.0,STARLINK-4058,PAYLOAD,2023-07-31 03:06:33,15.08843572,0.0001296,53.2166,150.3317,90.675,269.4391,5.2823e-05,5.53e-06,0.0,0 STARLINK-4058,1 53266U 22086AA  23212.12955493  .00000553  00000-0  52823-4 0  9995,2 53266  53.2166 150.3317 0001296  90.6750 269.4391 15.08843572 57089,6917.869,95.437,540.631,538.838,0.0
53266.0,STARLINK-4058,PAYLOAD,2023-08-01 02:57:20,15.08836772,0.0001306,53.2167,145.8712,96.0024,264.1116,2.2614e-05,7.2e-07,0.0,0 STARLINK-4058,1 53266U 22086AA  23213.12315928  .00000072  00000-0  22614-4 0  9990,2 53266  53.2167 145.8712 0001306  96.0024 264.1116 15.08836772 57232,6917.89,95.438,540.659,538.852,0.0
53266.0,STARLINK-4058,PAYLOAD,2023-08-02 01:12:43,15.0885906,0.0002103,53.2167,141.705,143.7268,216.3867,0.00030511,4.574e-05,0.0,0 STARLINK-4058,1 53266U 22086AA  23214.05050698  .00004574  00000-0  30511-3 0  9998,2 53266  53.2167 141.7050 0002103 143.7268 216.3867 15.08859060 57370,6917.822,95.436,541.142,538.232,0.0
53266.0,STARLINK-4058,PAYLOAD,2023-08-02 12:20:27,15.08834702,0.0001966,53.2172,139.6231,81.8588,278.2627,-1.8776e-05,-5.87e-06,0.0,0 STARLINK-4058,1 53266U 22086AA  23214.51420293 -.00000587  00000-0 -18776-4 0  9993,2 53266  53.2172 139.6231 0001966  81.8588 278.2627 15.08834702 57441,6917.897,95.438,541.122,538.402,0.0
53266.0,STARLINK-4058,PAYLOAD,2023-08-03 04:14:18,15.08841971,0.0001263,53.2163,136.6495,79.0813,281.0321,0.00011101,1.479e-05,0.0,0 STARLINK-4058,1 53266U 22086AA  23215.17660000  .00001479  00000-0  11101-3 0  9991,2 53266  53.2163 136.6495 0001263  79.0813 281.0321 15.08841971 57540,6917.874,95.437,540.613,538.866,0.0
53266.0,STARLINK-4058,PAYLOAD,2023-08-04 00:54:19,15.08840417,0.0001321,53.2164,132.784,81.2784,278.8358,-8.6597e-05,-1.666e-05,0.0,0 STARLINK-4058,1 53266U 22086AA  23216.03772440 -.00001666  00000-0 -86597-4 0  9991,2 53266  53.2164 132.7840 0001321  81.2784 278.8358 15.08840417 57671,6917.879,95.438,540.658,538.83,0.0
53266.0,STARLINK-4058,PAYLOAD,2023-08-05 03:55:52,15.08847448,0.0001281,53.2167,127.7279,77.755,282.3586,0.00023376,3.435e-05,0.0,0 STARLINK-4058,1 53266U 22086AA  23217.16380429  .00003435  00000-0  23376-3 0  9997,2 53266  53.2167 127.7279 0001281  77.7550 282.3586 15.08847448 57843,6917.858,95.437,540.609,538.836,0.0
53266.0,STARLINK-4058,PAYLOAD,2023-08-06 03:46:38,15.08864091,0.0001277,53.2167,123.2674,85.0466,275.0672,0.00047447,7.276e-05,0.0,0 STARLINK-4058,1 53266U 22086AA  23218.15739411  .00007276  00000-0  47447-3 0  9998,2 53266  53.2167 123.2674 0001277  85.0466 275.0672 15.08864091 57990,6917.807,95.436,540.555,538.788,0.0
53266.0,STARLINK-4058,PAYLOAD,2023-08-06 18:05:08,15.08826202,0.0001031,53.2158,120.5905,72.5736,287.5368,-0.00033191,-5.564e-05,0.0,0 STARLINK-4058,1 53266U 22086AA  23218.75356796 -.00005564  00000-0 -33191-3 0  9996,2 53266  53.2158 120.5905 0001031  72.5736 287.5368 15.08826202 58089,6917.923,95.438,540.501,539.074,0.0
53266.0,STARLINK-4058,PAYLOAD,2023-08-07 09:59:00,15.08832113,0.0001089,53.2161,117.6181,97.0377,263.0739,8.4731e-05,1.061e-05,0.0,0 STARLINK-4058,1 53266U 22086AA  23219.41597335  .00001061  00000-0  84731-4 0  9999,2 53266  53.2161 117.6181 0001089  97.0377 263.0739 15.08832113 58182,6917.904,95.438,540.523,539.016,0.0
53266.0,STARLINK-4058,PAYLOAD,2023-08-08 01:52:51,15.08859665,0.0001006,53.2157,114.645,106.8582,253.252,0.0013366,0.00021059,0.0,0 STARLINK-4058,1 53266U 22086AA  23220.07837343  .00021059  00000-0  13366-2 0  9992,2 53266  53.2157 114.6450 0001006 106.8582 253.2520 15.08859665 58280,6917.82,95.436,540.381,538.989,0.0
53266.0,STARLINK-4058,PAYLOAD,2023-08-09 01:43:37,15.08862504,9.81e-05,53.2157,110.1846,106.5991,253.5109,0.00054024,8.326e-05,0.0,0 STARLINK-4058,1 53266U 22086AA  23221.07196382  .00008326  00000-0  54024-3 0  9993,2 53266  53.2157 110.1846 0000981 106.5991 253.5109 15.08862504 58431,6917.812,95.436,540.355,538.998,0.0
53266.0,STARLINK-4058,PAYLOAD,2023-08-09 09:40:33,15.08851558,0.0001777,53.2154,108.6979,80.8801,279.2392,0.00057352,8.854e-05,0.0,0 STARLINK-4058,1 53266U 22086AA  23221.40316563  .00008854  00000-0  57352-3 0  9998,2 53266  53.2154 108.6979 0001777  80.8801 279.2392 15.08851558 58486,6917.845,95.437,540.939,538.481,0.0
53266.0,STARLINK-4058,PAYLOAD,2023-08-10 01:34:24,15.08845268,6.25e-05,53.2163,105.7269,85.742,274.3644,-0.00014618,-2.614e-05,0.0,0 STARLINK-4058,1 53266U 22086AA  23222.06556319 -.00002614  00000-0 -14618-3 0  9994,2 53266  53.2163 105.7269 0000625  85.7420 274.3644 15.08845268 58586,6917.864,95.437,540.162,539.297,0.0
53266.0,STARLINK-4058,PAYLOAD,2023-08-10 15:52:53,15.08839346,0.000116,53.2136,103.0503,80.5385,279.5738,4.6742e-05,4.56e-06,0.0,0 STARLINK-4058,1 53266U 22086AA  23222.66172853  .00000456  00000-0  46742-4 0  9991,2 53266  53.2136 103.0503 0001160  80.5385 279.5738 15.08839346 58677,6917.882,95.438,540.55,538.945,0.0
53266.0,STARLINK-4058,PAYLOAD,2023-08-12 01:15:59,15.08842347,0.0001121,53.2152,96.8042,82.5339,277.578,0.00021155,3.081e-05,0.0,0 STARLINK-4058,1 53266U 22086AA  23224.05277076  .00003081  00000-0  21155-3 0  9996,2 53266  53.2152  96.8042 0001121  82.5339 277.5780 15.08842347 58883,6917.873,95.437,540.514,538.963,0.0
